NORAD_CAT_ID,OBJECT_NAME,OBJECT_TYPE,EPOCH,MEAN_MOTION,ECCENTRICITY,INCLINATION,RA_OF_ASC_NODE,ARG_OF_PERICENTER,MEAN_ANOMALY,BSTAR,MEAN_MOTION_DOT,MEAN_MOTION_DDOT,TLE_LINE0,TLE_LINE1,TLE_LINE2,SEMIMAJOR_AXIS,PERIOD,APOGEE,PERIGEE,DECAYED
53733.0,STARLINK-4574,PAYLOAD,2022-10-03 14:00:01,15.73251482,0.0001394,53.2143,132.1587,130.94,67.7764,9.6703e-05,0.00013002,0.0,0 STARLINK-4574,1 53733U 22107AK  22276.58334491  .00013002  00000-0  96703-4 0  9994,2 53733  53.2143 132.1587 0001394 130.9400  67.7764 15.73251482  4595,6727.748000000001,91.53,350.551,348.676,0.0
53733.0,STARLINK-4574,PAYLOAD,2022-10-03 22:00:00,15.73270674,0.0001133,53.2143,130.5112,123.0628,164.6526,-0.00053409,-0.00075134,0.0,0 STARLINK-4574,1 53733U 22107AK  22276.91667824 -.00075134  00000-0 -53409-3 0  9991,2 53733  53.2143 130.5112 0001133 123.0628 164.6526 15.73270674  1300,6727.694,91.529,350.321,348.796,0.0
53733.0,STARLINK-4574,PAYLOAD,2022-10-04 06:00:00,15.73245421,0.000112,53.2141,128.8607,124.8635,251.8346,-0.00045068,-0.00063515,0.0,0 STARLINK-4574,1 53733U 22107AK  22277.25001157 -.00063515  00000-0 -45068-3 0  9992,2 53733  53.2141 128.8607 0001120 124.8635 251.8346 15.73245421  4696,6727.766,91.531,350.384,348.87699999999984,0.0
53733.0,STARLINK-4574,PAYLOAD,2022-10-04 14:00:01,15.7319632,0.0001291999999999,53.2143,127.2101,131.5549,334.1011,-5.2314e-05,-7.954e-05,0.0,0 STARLINK-4574,1 53733U 22107AK  22277.58334491 -.00007954  00000-0 -52314-4 0  9996,2 53733  53.2143 127.2101 0001292 131.5549 334.1011 15.73196320  1301,6727.906,91.533,350.64,348.901,0.0
53733.0,STARLINK-4574,PAYLOAD,2022-10-04 22:00:00,15.73133485,0.0001118,53.2141,125.5628,118.1593,76.3926,0.00023537,0.00032446,0.0,0 STARLINK-4574,1 53733U 22107AK  22277.91667824  .00032446  00000-0  23537-3 0  9998,2 53733  53.2141 125.5628 0001118 118.1593  76.3926 15.73133485  1304,6728.085,91.537,350.702,349.1980000000001,0.0
53733.0,STARLINK-4574,PAYLOAD,2022-10-05 08:00:01,15.73157774,0.0001313,53.2142,123.4994,124.2635,271.3795,0.00010422,0.00014005,0.0,0 STARLINK-4574,1 53733U 22107AK  22278.33334491  .00014005  00000-0  10422-3 0  9996,2 53733  53.2142 123.4994 0001313 124.2635 271.3795 15.73157774  4862,6728.016,91.536,350.764,348.997,0.0
53733.0,STARLINK-4574,PAYLOAD,2022-10-05 14:00:01,15.73182788,0.0001496,53.2143,122.2617,120.3076,252.0534,-4.8511e-05,-7.417e-05,0.0,0 STARLINK-4574,1 53733U 22107AK  22278.58335648 -.00007417  00000-0 -48511-4 0  9990,2 53733  53.2143 122.2617 0001496 120.3076 252.0534 15.73182788  1306,6727.944,91.534,350.816,348.80300000000005,0.0
53733.0,STARLINK-4574,PAYLOAD,2022-10-05 22:00:00,15.73143364,0.0001426999999999,53.2143,120.6144,109.0196,352.1861,0.00070631,0.00099445,0.0,0 STARLINK-4574,1 53733U 22107AK  22278.91667824  .00099445  00000-0  70631-3 0  9998,2 53733  53.2143 120.6144 0001427 109.0196 352.1861 15.73143364  1306,6728.057,91.536,350.88199999999995,348.962,0.0
53733.0,STARLINK-4574,PAYLOAD,2022-10-06 06:00:00,15.73271542,0.0001309,53.214,118.9636,115.6954,74.4093,-0.00044454,-0.00062736,0.0,0 STARLINK-4574,1 53733U 22107AK  22279.25001157 -.00062736  00000-0 -44454-3 0  9996,2 53733  53.2140 118.9636 0001309 115.6954  74.4093 15.73271542  5016,6727.691,91.529,350.43699999999984,348.676,0.0
53733.0,STARLINK-4574,PAYLOAD,2022-10-06 14:00:01,15.73224639,0.0001322,53.214,117.3133,121.5763,157.5168,7.7173e-05,0.00010235,0.0,0 STARLINK-4574,1 53733U 22107AK  22279.58334491  .00010235  00000-0  77173-4 0  9992,2 53733  53.2140 117.3133 0001322 121.5763 157.5168 15.73224639  1309,6727.825,91.532,350.579,348.801,0.0
53733.0,STARLINK-4574,PAYLOAD,2022-10-06 22:42:55,15.73195821,0.0001088999999999,53.2144,115.5182,106.8847,70.0046,0.00052184,0.00073244,0.0,0 STARLINK-4574,1 53733U 22107AK  22279.94646991  .00073244  00000-0  52184-3 0  9996,2 53733  53.2144 115.5182 0001089 106.8847  70.0046 15.73195821  1300,6727.906999999997,91.533,350.505,349.039,0.0
53733.0,STARLINK-4574,PAYLOAD,2022-10-07 00:00:00,15.73184331,0.0001084,53.2141,115.2531,108.2754,12.0315,0.00075886,0.00107176,0.0,0 STARLINK-4574,1 53733U 22107AK  22280.00001157  .00107176  00000-0  75886-3 0  9990,2 53733  53.2141 115.2531 0001084 108.2754  12.0315 15.73184331  5134,6727.94,91.534,350.534,349.076,0.0
53733.0,STARLINK-4574,PAYLOAD,2022-10-07 06:00:00,15.73384947,0.0001072999999999,53.2155,114.0138,106.8201,350.1763,-0.0039658,-0.00527789,0.0,0 STARLINK-4574,1 53733U 22107AK  22280.25001157 -.00527789  00000-0 -39658-2 0  9991,2 53733  53.2155 114.0138 0001073 106.8201 350.1763 15.73384947  5170,6727.368,91.522,349.955,348.511,0.0
53733.0,STARLINK-4574,PAYLOAD,2022-10-07 14:00:01,15.73089517,0.0001419,53.2137,112.3649,100.8774,84.7712,0.00045005,0.00062716,0.0,0 STARLINK-4574,1 53733U 22107AK  22280.58334491  .00062716  00000-0  45005-3 0  9993,2 53733  53.2137 112.3649 0001419 100.8774  84.7712 15.73089517  1301,6728.21,91.54,351.03,349.12,0.0
53733.0,STARLINK-4574,PAYLOAD,2022-10-07 22:00:00,15.73147639,0.0001250999999999,53.2137,110.7175,88.9949,185.4696,0.0012676999999999,0.00180767,0.0,0 STARLINK-4574,1 53733U 22107AK  22280.91667824  .00180767  00000-0  12677-2 0  9994,2 53733  53.2137 110.7175 0001251  88.9949 185.4696 15.73147639  5271,6728.044,91.536,350.751,349.0680000000001,0.0
53733.0,STARLINK-4574,PAYLOAD,2022-10-08 06:00:00,15.73420099,0.0001161,53.216,109.0655,83.0451,280.328,-0.00025898,-0.0003715,0.0,0 STARLINK-4574,1 53733U 22107AK  22281.25001157 -.00037150  00000-0 -25898-3 0  9992,2 53733  53.2160 109.0655 0001161  83.0451 280.3280 15.73420099  5329,6727.268,91.52,349.914,348.352,0.0
53733.0,STARLINK-4574,PAYLOAD,2022-10-08 14:00:01,15.73340814,0.0001111,53.2133,107.4161,96.8988,355.5247,-0.00082986,-0.00116185,0.0,0 STARLINK-4574,1 53733U 22107AK  22281.58334491 -.00116185  00000-0 -82986-3 0  9995,2 53733  53.2133 107.4161 0001111  96.8988 355.5247 15.73340814  5385,6727.494000000002,91.525,350.106,348.611,0.0
53733.0,STARLINK-4574,PAYLOAD,2022-10-08 22:00:00,15.73236559,0.0001075,53.213,105.768,81.3891,100.0963,0.00026801,0.00037219,0.0,0 STARLINK-4574,1 53733U 22107AK  22281.91667824  .00037219  00000-0  26801-3 0  9993,2 53733  53.2130 105.7680 0001075  81.3891 100.0963 15.73236559  1306,6727.791,91.531,350.379,348.93300000000005,0.0
53733.0,STARLINK-4574,PAYLOAD,2022-10-09 06:00:00,15.73258383,0.0001006,53.2129,104.1164,88.8342,181.6451,-7.9787e-05,-0.00011829,0.0,0 STARLINK-4574,1 53733U 22107AK  22282.25001157 -.00011829  00000-0 -79787-4 0  9995,2 53733  53.2129 104.1164 0001006  88.8342 181.6451 15.73258383  5480,6727.729,91.53,350.271,348.917,0.0
53733.0,STARLINK-4574,PAYLOAD,2022-10-09 14:00:01,15.73283746,0.0001175,53.2131,102.4663,89.0845,270.3979,-0.0005301,-0.00074624,0.0,0 STARLINK-4574,1 53733U 22107AK  22282.58334491 -.00074624  00000-0 -53010-3 0  9993,2 53733  53.2131 102.4663 0001175  89.0845 270.3979 15.73283746  1305,6727.656,91.528,350.31199999999984,348.731,0.0
53733.0,STARLINK-4574,PAYLOAD,2022-10-09 22:00:00,15.73206631,0.0001211999999999,53.2134,100.8184,73.9979,14.4894,1.5317e-05,1.531e-05,0.0,0 STARLINK-4574,1 53733U 22107AK  22282.91667824  .00001531  00000-0  15317-4 0  9993,2 53733  53.2134 100.8184 0001212  73.9979  14.4894 15.73206631  1301,6727.876,91.533,350.557,348.926,0.0
53733.0,STARLINK-4574,PAYLOAD,2022-10-10 06:00:00,15.73190921,0.0001038,53.2145,99.1668,77.1778,100.2542,-7.5172e-05,-0.00011151,0.0,0 STARLINK-4574,1 53733U 22107AK  22283.25001157 -.00011151  00000-0 -75172-4 0  9998,2 53733  53.2145  99.1668 0001038  77.1778 100.2542 15.73190921  5648,6727.920999999999,91.534,350.4840000000001,349.088,0.0
53733.0,STARLINK-4574,PAYLOAD,2022-10-10 14:00:01,15.7326271,0.0001056,53.2147,97.5172,79.7478,186.6377,-0.00026727,-0.0003806,0.0,0 STARLINK-4574,1 53733U 22107AK  22283.58334491 -.00038060  00000-0 -26727-3 0  9993,2 53733  53.2147  97.5172 0001056  79.7478 186.6377 15.73262710  5692,6727.715999999999,91.53,350.292,348.871,0.0
53733.0,STARLINK-4574,PAYLOAD,2022-10-10 22:00:01,15.73329883,0.0001088,53.2162,95.8698,74.5937,280.839,-0.0039651,-0.00526525,0.0,0 STARLINK-4574,1 53733U 22107AK  22283.91668981 -.00526525  00000-0 -39651-2 0  9991,2 53733  53.2162  95.8698 0001088  74.5937 280.8390 15.73329883  5744,6727.525,91.526,350.122,348.658,0.0
53733.0,STARLINK-4574,PAYLOAD,2022-10-11 06:00:00,15.73157533,9.63e-05,53.2152,94.2178,72.1506,12.0956,-0.00021316,-0.00030371,0.0,0 STARLINK-4574,1 53733U 22107AK  22284.25001157 -.00030371  00000-0 -21316-3 0  9994,2 53733  53.2152  94.2178 0000963  72.1506  12.0956 15.73157533  5807,6728.016,91.536,350.529,349.233,0.0
53733.0,STARLINK-4574,PAYLOAD,2022-10-11 14:00:01,15.73185173,0.0001574,53.2171,92.5683,84.9481,88.0826,0.00024053,0.00033249,0.0,0 STARLINK-4574,1 53733U 22107AK  22284.58334491  .00033249  00000-0  24053-3 0  9996,2 53733  53.2171  92.5683 0001574  84.9481  88.0826 15.73185173  1303,6727.937,91.534,350.861,348.74300000000005,0.0
53733.0,STARLINK-4574,PAYLOAD,2022-10-11 22:00:00,15.73180754,0.0001198,53.2151,90.921,53.8325,208.1223,0.00015362,0.00020976,0.0,0 STARLINK-4574,1 53733U 22107AK  22284.91667824  .00020976  00000-0  15362-3 0  9998,2 53733  53.2151  90.9210 0001198  53.8325 208.1223 15.73180754  1309,6727.95,91.534,350.621,349.009,0.0
53733.0,STARLINK-4574,PAYLOAD,2022-10-12 14:00:01,15.73157875,0.0001357,53.2164,87.6198,70.2288,9.5585,0.0010511,0.00149274,0.0,0 STARLINK-4574,1 53733U 22107AK  22285.58334491  .00149274  00000-0  10511-2 0  9996,2 53733  53.2164  87.6198 0001357  70.2288   9.5585 15.73157875  1301,6728.015,91.536,350.793,348.967,0.0
53733.0,STARLINK-4574,PAYLOAD,2022-10-12 22:00:00,15.73258004,0.0001266,53.2168,85.9721,61.0766,107.6545,-0.00058381,-0.00081962,0.0,0 STARLINK-4574,1 53733U 22107AK  22285.91667824 -.00081962  00000-0 -58381-3 0  9991,2 53733  53.2168  85.9721 0001266  61.0766 107.6545 15.73258004  1308,6727.73,91.53,350.44699999999995,348.74300000000005,0.0
